OBJECT_NAME,OBJECT_ID,EPOCH,MEAN_MOTION,ECCENTRICITY,INCLINATION,RA_OF_ASC_NODE,ARG_OF_PERICENTER,MEAN_ANOMALY,EPHEMERIS_TYPE,CLASSIFICATION_TYPE,NORAD_CAT_ID,ELEMENT_SET_NO,REV_AT_EPOCH,BSTAR,MEAN_MOTION_DOT,MEAN_MOTION_DDOT
STARLINK-35955,2025-271U,2026-07-14T12:31:59.307744,15.30197498,.00013805,53.1594,270.9244,92.0883,268.0276,0,U,66635,999,3698,.16092601E-3,.4409E-4,0
STARLINK-35968,2025-271V,2026-07-14T12:41:06.310464,15.30202304,.00012039,53.1603,270.9643,47.9890,312.1213,0,U,66636,999,3698,.30010453E-3,.854E-4,0
STARLINK-35953,2025-271W,2026-07-14T11:54:09.307584,15.34382438,.00012181,53.1569,267.9303,85.7491,274.3651,0,U,66637,999,3702,.33240704E-4,.746E-5,0
STARLINK-35972,2025-271X,2026-07-14T11:16:08.356224,15.30242651,.00016562,53.1607,271.3099,44.1104,316.0029,0,U,66638,999,3697,.67082538E-3,.19587E-3,0
STARLINK-35908,2025-271Y,2026-07-14T12:25:54.171840,15.30195047,.00011045,53.1580,270.9005,122.5116,237.5991,0,U,66639,999,3698,.13681123E-3,.3694E-4,0
STARLINK-35921,2025-271Z,2026-07-14T14:43:51.929472,15.30200696,.00013294,53.1586,270.0769,98.2566,261.8586,0,U,66640,999,3700,.25244352E-3,.7125E-4,0
STARLINK-35923,2025-271AA,2026-07-14T11:28:19.341696,15.30200235,.0001268,53.1602,271.3593,91.8580,268.2566,0,U,66641,999,3697,.24731186E-3,.6972E-4,0
STARLINK-35926,2025-271AB,2026-07-14T12:45:39.513312,15.30204849,.00007383,53.1609,270.9840,93.8113,266.2972,0,U,66642,999,3694,.4193213E-3,.12082E-3,0
STARLINK-35918,2025-271AC,2026-07-14T11:35:58.913664,15.34377965,.00010465,53.1579,267.8502,80.9694,279.1427,0,U,66643,999,3702,.39963261E-3,.1314E-3,0
STARLINK-35938,2025-271AD,2026-07-14T11:23:45.733632,15.30199665,.000159,53.1604,271.3319,100.9809,259.1370,0,U,66644,999,3697,.26292095E-3,.7435E-4,0
COSMOS 2597 (RODNIK-S 22),2025-273A,2026-07-14T08:48:58.003200,12.42899812,.00121318,82.5008,153.6233,151.9159,208.2577,0,U,66647,999,2867,-.64108977E-4,.1E-7,0
COSMOS 2598 (RODNIK-S 23),2025-273B,2026-07-14T08:05:44.793600,12.42880766,.00119665,82.5049,153.6804,121.6775,238.5474,0,U,66648,999,2867,-.57560099E-4,.2E-7,0
COSMOS 2599 (RODNIK-S 24),2025-273C,2026-07-14T09:28:09.776640,12.42896633,.00165145,82.5047,153.7269,140.0650,220.1647,0,U,66649,999,2867,-.26622517E-4,.6E-7,0
BEE-1000,2025-274A,2026-07-14T13:33:21.565152,14.93051286,.0010052,97.7474,124.2204,263.2914,96.7162,0,U,66650,999,3429,.13272344E-3,.1326E-4,0
2025-274B,2025-274B,2026-07-14T12:37:36.898464,14.93355295,.001021,97.7468,124.2540,261.2403,98.7661,0,U,66651,999,3429,.11274741E-3,.1126E-4,0
2025-274C,2025-274C,2026-07-14T12:48:49.642560,14.93168755,.00099296,97.7472,124.2569,268.1502,91.8581,0,U,66652,999,3429,.11279564E-3,.1121E-4,0
2025-274D,2025-274D,2026-07-14T08:34:19.260768,14.92846240,.00109349,97.7477,124.0308,264.9838,95.0133,0,U,66653,999,3426,.99038758E-4,.97E-5,0
JACK E,2025-274E,2026-07-14T06:02:17.182464,14.93177276,.00114196,97.7479,124.0211,266.9198,93.0715,0,U,66654,999,3425,.69033693E-4,.665E-5,0
CAS500-3,2025-274F,2026-07-14T12:15:08.580672,14.88382827,.00062842,97.7438,122.9402,40.1496,320.0184,0,U,66655,999,3421,.6933514E-4,.589E-5,0
2025-274G,2025-274G,2026-07-14T13:09:23.956416,14.93484393,.00119679,97.7475,124.3940,266.8915,93.0935,0,U,66656,999,3430,.1316984E-3,.133E-4,0
SPIRONE,2025-274H,2026-07-14T07:41:22.894368,14.93650601,.00104556,97.7474,124.2251,286.9151,73.0922,0,U,66657,999,3427,.77719964E-4,.765E-5,0
COSMIC,2025-274J,2026-07-14T12:18:04.076352,14.94465385,.00108632,97.7473,124.5839,288.9010,71.1032,0,U,66658,999,3431,.10485234E-3,.1074E-4,0
JACK K,2025-274K,2026-07-14T12:57:02.550240,14.93934644,.00117555,97.7478,124.5627,289.8984,70.0969,0,U,66659,999,3431,.1110025E-3,.1125E-4,0
K-HERO,2025-274L,2026-07-14T14:02:57.706368,14.94059675,.00123872,97.7481,124.6677,290.3305,69.6584,0,U,66660,999,3432,.61673298E-4,.602E-5,0
SNUGLITE-III,2025-274M,2026-07-14T08:55:08.284224,14.94089941,.00130014,97.7480,124.4776,292.2232,67.7609,0,U,66661,999,3429,.72802312E-4,.721E-5,0
E3T-1 (E3TESTER-1),2025-274N,2026-07-14T13:16:36.863616,14.94289664,.0013342,97.7482,124.7058,290.7769,69.2022,0,U,66662,999,3432,.1288143E-3,.1328E-4,0
SOYUZ-MS 28,2025-275A,2026-07-14T09:52:42.163104,15.49007257,.00067026,51.6306,165.3606,294.7447,65.2843,0,U,66664,999,64616,.80585034E-4,.3993E-4,0
FORMOSAT-8A,2025-276A,2026-07-14T05:01:34.023648,15.00750458,.0005467,97.6547,269.0456,132.9050,227.2634,0,U,66666,999,3411,.78205553E-4,.933E-5,0
PELICAN-5,2025-276B,2026-07-14T04:40:51.394656,15.32394840,.00020825,97.4155,270.1623,43.3460,316.7946,0,U,66667,999,3465,.9992164E-4,.3046E-4,0
SARI-1,2025-276C,2026-07-14T13:56:36.554496,15.29319189,.00056506,97.4042,269.6283,254.1661,105.8956,0,U,66668,999,3467,.59613101E-3,.16905E-3,0
SARI-2,2025-276D,2026-07-14T14:25:25.630176,15.28762356,.00053388,97.4062,269.6528,258.5451,101.5189,0,U,66669,999,3467,.56732647E-3,.15809E-3,0
HUNITY,2025-276E,2026-07-14T10:33:14.069952,15.28350295,.00051395,97.4065,269.4342,260.7748,99.2910,0,U,66670,999,3464,.5597652E-3,.15401E-3,0
ANISCSAT-1,2025-276F,2026-07-14T11:19:19.524864,15.22113936,.00042974,97.4204,268.8711,253.7920,106.2844,0,U,66671,999,3458,.27409936E-3,.6211E-4,0
BRO-17,2025-276G,2026-07-14T11:18:22.618368,15.18155174,.0005094,97.4185,268.0530,262.5355,97.5300,0,U,66672,999,3453,.1040792E-3,.2059E-4,0
TRANSPORTER-15 OBJECT H,2025-276H,2026-07-14T03:59:43.391616,15.23623838,.00047801,97.4158,268.6594,270.7416,89.3273,0,U,66673,999,3455,.4392715E-3,.1046E-3,0
BRO-20,2025-276J,2026-07-14T10:43:57.405216,15.18322710,.00046798,97.4162,268.0177,266.8520,93.2179,0,U,66674,999,3453,.80416555E-4,.1583E-4,0
VEERY-0G,2025-276K,2026-07-14T14:28:55.564896,15.21281580,.00042341,97.4168,268.7454,262.4462,97.6293,0,U,66675,999,3459,.2259293E-3,.4983E-4,0
TRANSPORTER-15 OBJECT L,2025-276L,2026-07-13T17:04:16.004640,15.19258063,.00042997,97.4172,267.5047,271.1273,88.9469,0,U,66676,999,3443,.13087571E-3,.2691E-4,0
AE5RC,2025-276M,2026-07-14T11:27:33.006240,15.23434213,.00032992,97.4175,269.0674,269.3454,90.7405,0,U,66677,999,3460,.31985115E-3,.755E-4,0
OTTER SDM,2025-276N,2026-07-14T04:13:03.478944,15.20049880,.00042681,97.4208,268.2073,258.7712,101.3043,0,U,66678,999,3451,.16567661E-3,.3505E-4,0
LILIUM-2,2025-276P,2026-07-14T03:12:18.130752,15.18095480,.00043714,97.4145,267.6376,272.7954,87.2779,0,U,66679,999,3448,.78105127E-4,.1526E-4,0
LEMUR-2-DEANANDMAEVE,2025-276Q,2026-07-14T11:41:12.454944,15.19471719,.00041503,97.4199,268.3777,255.0119,105.0657,0,U,66680,999,3455,.15795189E-3,.3283E-4,0
TRANSPORTER-15 OBJECT R,2025-276R,2026-07-14T10:55:27.329088,15.24823155,.00035721,97.4115,269.0805,270.1013,89.9815,0,U,66681,999,3461,.37756262E-3,.9305E-4,0
ION SCV-022,2025-276S,2026-07-14T10:32:07.793376,14.97587662,.00058498,97.5287,265.1370,82.0494,278.1393,0,U,66682,999,3415,-.9486735E-5,-.166E-5,0
6GSTARLAB,2025-276T,2026-07-14T11:18:15.568128,15.18532290,.0004294,97.4239,268.3650,254.2923,105.7837,0,U,66683,999,3454,.76935581E-4,.1521E-4,0
MICE-1,2025-276U,2026-07-14T12:17:32.481600,15.19369239,.00038435,97.4267,268.6869,249.5052,110.5770,0,U,66684,999,3456,.936369E-4,.1912E-4,0
AE5RA,2025-276V,2026-07-14T11:25:59.939616,15.23440437,.00029371,97.4212,269.1770,263.1912,96.8991,0,U,66685,999,3460,.28906452E-3,.6817E-4,0
LEMUR-2-STAS-GORBUK,2025-276W,2026-07-14T11:02:48.739776,15.19654394,.00035857,97.4241,268.5390,251.3756,108.7089,0,U,66686,999,3455,.14071503E-3,.2932E-4,0
LEO EXPRESS 3,2025-276X,2026-07-14T11:22:57.166464,15.21746725,.00049833,97.4259,268.7744,72.9608,287.2174,0,U,66687,999,3457,.35005883E-3,.7869E-4,0
WISDOM A,2025-276Y,2026-07-14T10:58:22.291680,15.19580786,.00034046,97.4215,268.4701,254.3919,105.6940,0,U,66688,999,3455,.13210156E-3,.2743E-4,0
AC1-003,2025-276Z,2026-07-14T11:20:55.053888,15.18335289,.00011421,97.4196,268.2511,284.9578,75.1529,0,U,66689,999,3454,.60721458E-4,.118E-4,0
TRANSPORTER-15 OBJECT AA,2025-276AA,2026-07-14T03:39:21.191040,15.19260066,.00031765,97.4178,268.0027,258.5947,101.4931,0,U,66690,999,3450,.12468592E-3,.2561E-4,0
TRANSPORTER-15 OBJECT AB,2025-276AB,2026-07-14T12:15:27.517824,15.21351157,.00032083,97.4196,268.8045,250.5616,109.5274,0,U,66691,999,3458,.20977309E-3,.4631E-4,0
NUSAT-52,2025-276AC,2026-07-14T11:16:35.139360,15.20032857,.00016088,97.4201,268.5675,284.5461,75.5595,0,U,66692,999,3456,.13895469E-3,.2927E-4,0
AE5RB,2025-276AD,2026-07-14T11:26:42.953856,15.23442213,.00023046,97.4167,269.0411,253.7134,106.3849,0,U,66693,999,3460,.29900503E-3,.7054E-4,0
YAM-9,2025-276AE,2026-07-14T11:19:23.841408,15.15173300,.00081506,97.4206,267.3692,206.3149,153.7671,0,U,66694,999,3448,.16848345E-3,.3098E-4,0
IRIDE FM1,2025-276AF,2026-07-14T10:43:19.619904,15.21139024,.0001148,97.4192,268.8570,137.0365,223.0961,0,U,66695,999,3458,.18815804E-3,.412E-4,0
IRIDE FM2,2025-276AG,2026-07-14T05:10:13.765440,15.20818650,.00019774,97.4180,268.3670,261.8553,98.2458,0,U,66696,999,3453,.20804392E-3,.452E-4,0
IRIDE FM3,2025-276AH,2026-07-14T10:55:06.240576,15.21207777,.00018123,97.4179,268.8065,162.7650,197.3648,0,U,66697,999,3458,.18673213E-3,.4097E-4,0
IRIDE FM4,2025-276AJ,2026-07-14T03:30:57.604320,15.20033815,.00022864,97.4182,268.1589,262.0589,98.0387,0,U,66698,999,3451,.1665413E-3,.3522E-4,0
IRIDE FM5,2025-276AK,2026-07-14T10:32:24.803808,15.20535742,.00021137,97.4195,268.5712,264.5442,95.5552,0,U,66699,999,3456,.19046803E-3,.4098E-4,0
IRIDE FM6,2025-276AL,2026-07-14T03:56:36.090240,15.21476556,.00015143,97.4213,268.6861,168.9448,191.1821,0,U,66700,999,3454,.20572438E-3,.4556E-4,0
IRIDE FM7,2025-276AM,2026-07-14T10:22:28.459776,15.20439677,.000291,97.4213,268.6346,259.8503,100.2404,0,U,66701,999,3456,.13572058E-3,.2892E-4,0
IRIDE FM8,2025-276AN,2026-07-14T04:12:04.521312,15.20365353,.00023466,97.4189,268.2965,298.5670,61.5329,0,U,66702,999,3452,.13146301E-3,.2793E-4,0
PELICAN-6,2025-276AP,2026-07-14T10:56:08.127168,15.31323409,.00031169,97.3741,270.4386,39.3159,320.8308,0,U,66703,999,3470,.27948138E-3,.838E-4,0
